[{"OBJECT_NAME":"ICEYE-X31","OBJECT_ID":"2023-174AJ","EPOCH":"2026-03-09T23:06:20.433600","MEAN_MOTION":15.30950809,"ECCENTRICITY":0.00015021,"INCLINATION":97.3851,"RA_OF_ASC_NODE":144.9524,"ARG_OF_PERICENTER":332.6589,"MEAN_ANOMALY":27.4572,"EPHEMERIS_TYPE":0,"CLASSIFICATION_TYPE":"U","NORAD_CAT_ID":58288,"ELEMENT_SET_NO":999,"REV_AT_EPOCH":12955,"BSTAR":0.00066288467,"MEAN_MOTION_DOT":0.00019777,"MEAN_MOTION_DDOT":0},{"OBJECT_NAME":"STARLINK-35243","OBJECT_ID":"2025-232M","EPOCH":"2026-03-09T12:07:09.055488","MEAN_MOTION":15.30197658,"ECCENTRICITY":0.00012324,"INCLINATION":53.159,"RA_OF_ASC_NODE":105.0214,"ARG_OF_PERICENTER":98.0949,"MEAN_ANOMALY":262.0192,"EPHEMERIS_TYPE":0,"CLASSIFICATION_TYPE":"U","NORAD_CAT_ID":66016,"ELEMENT_SET_NO":999,"REV_AT_EPOCH":2340,"BSTAR":0.00084491595,"MEAN_MOTION_DOT":0.00024746,"MEAN_MOTION_DDOT":0}]
